{
  "norad_id": 65326,
  "name": "STARLINK-34902",
  "history": [
    {
      "epoch": "2026-03-28T19:35:27.402432Z",
      "apogee_km": 475.97790453461766,
      "perigee_km": 474.39451274049406,
      "latitude_deg": 1.4288061469490328e-05,
      "longitude_deg": -2.0867735752959935,
      "height_km": 476.03425751324255,
      "semi_major_axis_km": 6853.323208637556,
      "eccentricity": 0.00011552,
      "inclination_deg": 53.1601,
      "raan_deg": 118.0087,
      "arg_perigee_deg": 86.3646,
      "mean_anomaly_deg": 273.7487,
      "mean_motion_rev_day": 15.30209666
    }
  ]
}